ONEWEB-0086             
1 45456U 20020AJ  23278.54950435 -.00001563  00000+0 -44448-2 0  9997
2 45456  87.8983 216.8491 0002430  80.2358 279.9045 13.11423593173420
ONEWEB-0088             
1 45457U 20020AK  23278.52677064  .00005899  00000+0  16606-1 0  9998
2 45457  87.8976 216.8345 0002045  79.7370 280.3989 13.11377899173352
ONEWEB-0102             
1 47258U 20100A   23278.31159684 -.00000225  00000+0 -65945-3 0  9990
2 47258  87.9074 186.6894 0001806  62.9744 297.1569 13.12441757135410
ONEWEB-0109             
1 47259U 20100B   23278.47466692 -.00000378  00000+0 -10864-2 0  9996
2 47259  87.9007 186.6449 0001893  73.6778 286.4559 13.12443687135262
ONEWEB-0110             
1 47260U 20100C   23278.26925812  .00000377  00000+0  10133-2 0  9995
2 47260  87.9073 186.6803 0001915  67.6981 292.4351 13.12443611135405
ONEWEB-0111             
1 47261U 20100D   23278.45349497 -.00000086  00000+0 -27517-3 0  9990
2 47261  87.9068 186.6327 0001813  69.4661 290.6662 13.12439270135268
ONEWEB-0114             
1 47262U 20100E   23278.48526231 -.00000033  00000+0 -12733-3 0  9993
2 47262  87.9072 186.6480 0001359  59.8765 300.2498 13.12445176135220
ONEWEB-0117             
1 47263U 20100F   23278.47678180 -.00000378  00000+0 -10856-2 0  9999
2 47263  87.9010 186.6547 0001876  74.1241 286.0095 13.12443091135239
